STARLINK-4285           
1 52991U 22076F   22194.91667824 -.01038033  00000+0 -47590-2 0  9990
2 52991  53.2173 348.2866 0020084  56.3690 110.1653 15.84971773  1302
STARLINK-4269           
1 52992U 22076G   22195.16667824 -.01036896  00000+0 -49065-2 0  9993
2 52992  53.2175 347.0253 0017699  54.2978  99.6075 15.84417438  1533
STARLINK-4264           
1 52993U 22076H   22194.91667824 -.01038501  00000+0 -47568-2 0  9997
2 52993  53.2173 348.2854 0019807  55.8774 111.2740 15.85002955  1306
STARLINK-4256           
1 52994U 22076J   22194.91667824 -.01039598  00000+0 -47511-2 0  9993
2 52994  53.2173 348.2842 0020570  53.7319 113.7188 15.85019305  1305
STARLINK-4296           
1 52995U 22076K   22195.16667824 -.01036882  00000+0 -48741-2 0  9991
2 52995  53.2176 347.0235 0019585  56.7889  98.3992 15.84478914  1531
STARLINK-4295           
1 52996U 22076L   22195.16667824 -.01036959  00000+0 -48881-2 0  9992
2 52996  53.2176 347.0236 0018531  55.4205  99.4436 15.84463946  1535
STARLINK-4301           
1 52997U 22076M   22194.91667824 -.01039485  00000+0 -47379-2 0  9993
2 52997  53.2173 348.2812 0019667  56.3260 112.9772 15.85111289  1498
STARLINK-4254           
1 52998U 22076N   22194.91667824 -.01039309  00000+0 -47495-2 0  9998
2 52998  53.2173 348.2825 0019481  55.4201 112.9585 15.85065322  1300
STARLINK-4217           
1 52999U 22076P   22194.91667824 -.01040125  00000+0 -47388-2 0  9998
2 52999  53.2173 348.2801 0019150  55.2156 114.7002 15.85142507  1490
STARLINK-4194           
1 53000U 22076Q   22194.91667824 -.01039426  00000+0 -47477-2 0  9993
2 53000  53.2173 348.2821 0019341  55.3442 113.3319 15.85081308  1494
STARLINK-4190           
1 53001U 22076R   22194.91667824 -.01040184  00000+0 -47395-2 0  9996
2 53001  53.2173 348.2795 0018696  55.0227 115.1810 15.85158958  1497
STARLINK-4121           
1 53002U 22076S   22194.91667824 -.01040460  00000+0 -47380-2 0  9998
2 53002  53.2173 348.2815 0020511  53.4873 115.5001 15.85096779  1497
STARLINK-4255           
1 53003U 22076T   22195.16667824 -.01039009  00000+0 -48765-2 0  9992
2 53003  53.2175 347.0179 0016904  54.3869 103.6764 15.84619440  1530
STARLINK-4253           
1 53004U 22076U   22194.91667824 -.01039901  00000+0 -47405-2 0  9996
2 53004  53.2173 348.2804 0019217  55.2771 114.3212 15.85127607  1491
STARLINK-4288           
1 53005U 22076V   22194.91667824 -.01040605  00000+0 -47280-2 0  9991
2 53005  53.2173 348.2779 0019016  55.4375 115.6891 15.85204781  1498
STARLINK-4290           
1 53006U 22076W   22194.91667824 -.01040342  00000+0 -47353-2 0  9991
2 53006  53.2173 348.2786 0018855  55.3051 115.2090 15.85174113  1499
STARLINK-4215           
1 53007U 22076X   22194.91667824 -.01041069  00000+0 -47090-2 0  9997
2 53007  53.2173 348.2761 0020131  56.2548 115.7830 15.85250888  1495
STARLINK-4275           
1 53008U 22076Y   22194.91667824 -.01040771  00000+0 -47254-2 0  9999
2 53008  53.2173 348.2768 0018993  55.5656 115.8601 15.85220520  1305
STARLINK-4277           
1 53009U 22076Z   22194.91667824 -.01041700  00000+0 -46967-2 0  9993
2 53009  53.2173 348.2741 0020592  56.1704 116.7580 15.85298146  1491
STARLINK-4263           
1 53010U 22076AA  22194.91667824 -.01041001  00000+0 -47249-2 0  9993
2 53010  53.2173 348.2763 0018780  55.0473 116.6797 15.85236190  1494
STARLINK-4265           
1 53011U 22076AB  22194.91667824 -.01041829  00000+0 -46989-2 0  9992
2 53011  53.2173 348.2737 0020078  55.8355 117.4040 15.85313228  1494
STARLINK-4271           
1 53012U 22076AC  22194.91667824 -.01041292  00000+0 -47058-2 0  9995
2 53012  53.2173 348.2751 0020210  56.1850 116.1588 15.85266213  1497
STARLINK-4177           
1 53013U 22076AD  22194.91667824 -.01042213  00000+0 -46952-2 0  9992
2 53013  53.2173 348.2719 0019566  56.0062 118.1526 15.85358830  1309
STARLINK-4183           
1 53014U 22076AE  22194.91667824 -.01041348  00000+0 -46965-2 0  9995
2 53014  53.2173 348.2747 0020834  56.3882 116.2679 15.85280947  1495
STARLINK-4262           
1 53015U 22076AF  22194.91667824 -.01042574  00000+0 -46858-2 0  9999
2 53015  53.2173 348.2708 0019979  56.1132 118.6364 15.85390191  1497
STARLINK-4283           
1 53016U 22076AG  22194.91667824 -.01042048  00000+0 -46985-2 0  9997
2 53016  53.2173 348.2728 0019860  55.6625 117.8776 15.85328821  1309
STARLINK-4281           
1 53017U 22076AH  22194.91667824 -.01042849  00000+0 -46833-2 0  9999
2 53017  53.2173 348.2702 0020014  55.7143 119.3388 15.85405498  1303
STARLINK-4279           
1 53018U 22076AJ  22194.91667824 -.01042207  00000+0 -47032-2 0  9990
2 53018  53.2173 348.2722 0019081  55.2276 118.6242 15.85343915  1496
STARLINK-4282           
1 53019U 22076AK  22194.91667824 -.01043144  00000+0 -46685-2 0  9995
2 53019  53.2173 348.2690 0020955  56.4285 119.2292 15.85435866  1495
STARLINK-4287           
1 53020U 22076AL  22194.91667824 -.01042497  00000+0 -46909-2 0  9996
2 53020  53.2173 348.2709 0019792  55.6112 118.8492 15.85374240  1490
STARLINK-4203           
1 53021U 22076AM  22194.91667824 -.01043331  00000+0 -46612-2 0  9996
2 53021  53.2173 348.2678 0021064  56.6151 119.6357 15.85466862  1496
STARLINK-4216           
1 53022U 22076AN  22194.91667824 -.01042981  00000+0 -46755-2 0  9995
2 53022  53.2173 348.2692 0020523  56.2172 119.1396 15.85420608  1497
STARLINK-4284           
1 53023U 22076AP  22194.91667824 -.01043870  00000+0 -46642-2 0  9999
2 53023  53.2173 348.2667 0020336  55.8358 121.0339 15.85496842  1495
STARLINK-4289           
1 53024U 22076AQ  22194.91667824 -.01043576  00000+0 -46631-2 0  9991
2 53024  53.2173 348.2668 0020647  56.1003 120.4579 15.85481960  1307
STARLINK-4218           
1 53025U 22076AR  22194.91667824 -.01044179  00000+0 -46478-2 0  9991
2 53025  53.2173 348.2656 0021384  56.4866 120.9406 15.85529379  1495
STARLINK-4119           
1 53026U 22076AS  22194.91667824 -.01044307  00000+0 -46638-2 0  9993
2 53026  53.2173 348.2681 0021628  53.8944 122.0604 15.85451806  1495
STARLINK-4158           
1 53027U 22076AT  22194.91667824 -.01044571  00000+0 -46356-2 0  9994
2 53027  53.2173 348.2638 0021761  56.8212 121.5211 15.85574207  1496
STARLINK-4161           
1 53028U 22076AU  22194.91667824 -.01043863  00000+0 -46496-2 0  9993
2 53028  53.2173 348.2657 0021422  56.6876 120.4580 15.85513050  1492
STARLINK-4143           
1 53029U 22076AV  22194.91667824 -.01045856  00000+0 -46385-2 0  9995
2 53029  53.2172 348.2633 0021745  53.9004 124.7441 15.85589975  1499
STARLINK-4160           
1 53030U 22076AW  22194.91667824 -.01044185  00000+0 -46408-2 0  9997
2 53030  53.2173 348.2646 0021746  56.9027 120.8361 15.85543880  1498
STARLINK-4137           
1 53031U 22076AX  22194.91667824 -.01045949  00000+0 -46304-2 0  9992
2 53031  53.2172 348.2615 0021543  53.7504 125.7773 15.85636311  1497
STARLINK-4115           
1 53032U 22076AY  22194.91667824 -.01045464  00000+0 -46415-2 0  9998
2 53032  53.2173 348.2640 0021960  54.1254 123.9315 15.85558797  1490
STARLINK-4167           
1 53033U 22076AZ  22194.91667824 -.01045173  00000+0 -46365-2 0  9990
2 53033  53.2172 348.2623 0020923  56.2832 122.9549 15.85620268  1495
STARLINK-4151           
1 53034U 22076BA  22194.91667824 -.01046115  00000+0 -46418-2 0  9997
2 53034  53.2172 348.2623 0021172  53.3655 125.5547 15.85606600  1484
STARLINK-4157           
1 53035U 22076BB  22194.91667824 -.01045392  00000+0 -46311-2 0  9996
2 53035  53.2172 348.2611 0020880  56.2850 123.5551 15.85650407  1483
STARLINK-4155           
1 53036U 22076BC  22194.91667824 -.01046369  00000+0 -46248-2 0  9991
2 53036  53.2172 348.2598 0021594  53.5678 126.5423 15.85667496  1486
STARLINK-4153           
1 53037U 22076BD  22194.91667824 -.01046509  00000+0 -46223-2 0  9991
2 53037  53.2172 348.2599 0021581  53.6616 126.7598 15.85682016  1487
STARLINK-4156           
1 53038U 22076BE  22194.91667824 -.01045501  00000+0 -46251-2 0  9994
2 53038  53.2172 348.2587 0020495  56.1844 124.5590 15.85695561  1486
FALCON 9 DEB            
1 53039U 22076BF  22194.67419132  .00552706  14888-3  70970-3 0  9991
2 53039  53.2232 349.2314 0069428  64.6409 296.1792 16.01748443   995
FALCON 9 DEB            
1 53040U 22076BG  22194.67235866  .00593679  17301-3  75959-3 0  9992
2 53040  53.2220 349.2155 0064959  66.2396 294.5431 16.02368440   992
FALCON 9 DEB            
1 53041U 22076BH  22194.73053130  .00630863  19927-3  75411-3 0  9998
2 53041  53.2210 348.8598 0062704  61.7549 298.9795 16.03661511  1004
FALCON 9 DEB            
1 53042U 22076BJ  22194.72958746  .00629982  19949-3  74370-3 0  9992
2 53042  53.2213 348.8522 0062082  62.7320 298.0019 16.03922682  1001
TIANLIAN 2-03           
1 53100U 22078A   22194.13372968  .00109935 -28304-6  65800-2 0  9997
2 53100  27.1649 175.2060 7307300 174.7636 353.4062  2.27980749    17
CZ-3B R/B               
1 53101U 22078B   22194.36739287  .00027741 -13268-6  64731-3 0  9994
2 53101  27.1278 175.5777 7249151 173.8956 206.2861  2.36738176    26
NOAA 1 [-]              
1 04793U 70106A   22194.82222983 -.00000017  00000+0  16812-3 0  9990
2 04793 101.5552 257.9652 0031116 270.7810 207.1166 12.54006152360892
NOAA 2 (ITOS-D) [-]     
1 06235U 72082A   22194.88884267 -.00000037  00000+0  58210-4 0  9994
2 06235 101.9534 177.2877 0004394  29.1491  39.6041 12.53149067275281
NOAA 3 [-]              
1 06920U 73086A   22194.84043855 -.00000059  00000+0 -95413-4 0  9997
2 06920 102.2084 176.4532 0006017 242.1993 177.6567 12.40347442204060
NOAA 4 [-]              
1 07529U 74089A   22194.86733029 -.00000048  00000+0 -10726-4 0  9990
2 07529 101.9136 174.5822 0009465  54.4470  11.2682 12.53158572179852
NOAA 5 [-]              
1 09057U 76077A   22194.90755743 -.00000046  00000+0 -67266-5 0  9999
2 09057 102.0999 162.6155 0010319  89.0121 334.2822 12.37772207 77011
